KUIPER-00095            
1 65134U 25171C   25326.83335647 -.00380154  00000+0 -19526-1 0  9998
2 65134  51.8812 267.2478 0006396 122.0406  28.9953 15.17785332  2797
KUIPER-00096            
1 65135U 25171D   25326.83335647  .00013755  00000+0  13354-2 0  9991
2 65135  51.8924 271.0891 0011689 136.6293 274.6027 14.92817559  4265
KUIPER-00097            
1 65136U 25171E   25326.83335647 -.00145743  00000+0 -16472-1 0  9990
2 65136  51.9162 273.4035 0011009 147.7773  86.1080 14.86850519  5283
KUIPER-00098            
1 65137U 25171F   25326.83335647  .00019261  00000+0  25476-2 0  9999
2 65137  51.9000 275.6053 0008206 143.9572 182.2654 14.79925008  4056
KUIPER-00099            
1 65138U 25171G   25326.83335647 -.00466123  00000+0 -28757-1 0  9999
2 65138  51.9071 268.2746 0007589 160.9196 280.8510 15.11740822  5509
KUIPER-00100            
1 65139U 25171H   25326.83335647 -.00678930  00000+0 -35018-1 0  9999
2 65139  51.8851 267.2761 0002094 136.4639  56.2927 15.18196548  5062
KUIPER-00102            
1 65140U 25171J   25326.83335647  .00032805  00000+0  18629-2 0  9994
2 65140  51.8860 268.2472 0012064 140.2299 238.4065 15.12577729  5882
KUIPER-00103            
1 65141U 25171K   25326.19014438  .00014284  00000+0  18965-2 0  9990
2 65141  51.8988 285.9434 0006821 138.2078 221.9406 14.79973193 16799
